[{"OBJECT_NAME":"STARLINK-33974","OBJECT_ID":"2025-099C","EPOCH":"2026-01-04T18:05:34.895040","MEAN_MOTION":15.27571648,"ECCENTRICITY":0.0001558,"INCLINATION":42.9965,"RA_OF_ASC_NODE":177.685,"ARG_OF_PERICENTER":264.036,"MEAN_ANOMALY":96.0314,"EPHEMERIS_TYPE":0,"CLASSIFICATION_TYPE":"U","NORAD_CAT_ID":63954,"ELEMENT_SET_NO":999,"REV_AT_EPOCH":3755,"BSTAR":0.0009707106,"MEAN_MOTION_DOT":0.00026539,"MEAN_MOTION_DDOT":0},{"OBJECT_NAME":"STARLINK-34170","OBJECT_ID":"2025-099D","EPOCH":"2026-01-04T21:08:20.732064","MEAN_MOTION":15.27579758,"ECCENTRICITY":0.0001241,"INCLINATION":43.0008,"RA_OF_ASC_NODE":176.9194,"ARG_OF_PERICENTER":274.3946,"MEAN_ANOMALY":85.6764,"EPHEMERIS_TYPE":0,"CLASSIFICATION_TYPE":"U","NORAD_CAT_ID":63955,"ELEMENT_SET_NO":999,"REV_AT_EPOCH":3756,"BSTAR":0.0010356,"MEAN_MOTION_DOT":0.00028344,"MEAN_MOTION_DDOT":0},{"OBJECT_NAME":"STARLINK-34187","OBJECT_ID":"2025-099E","EPOCH":"2026-01-04T17:50:47.050368","MEAN_MOTION":15.27580331,"ECCENTRICITY":0.00029862,"INCLINATION":43.005,"RA_OF_ASC_NODE":177.613,"ARG_OF_PERICENTER":281.129,"MEAN_ANOMALY":78.9226,"EPHEMERIS_TYPE":0,"CLASSIFICATION_TYPE":"U","NORAD_CAT_ID":63956,"ELEMENT_SET_NO":999,"REV_AT_EPOCH":3755,"BSTAR":0.0011764713,"MEAN_MOTION_DOT":0.00032256,"MEAN_MOTION_DDOT":0},{"OBJECT_NAME":"STARLINK-34142","OBJECT_ID":"2025-099F","EPOCH":"2026-01-04T17:45:13.811616","MEAN_MOTION":15.2756791,"ECCENTRICITY":0.00037067,"INCLINATION":43.0072,"RA_OF_ASC_NODE":177.5837,"ARG_OF_PERICENTER":279.2243,"MEAN_ANOMALY":80.8189,"EPHEMERIS_TYPE":0,"CLASSIFICATION_TYPE":"U","NORAD_CAT_ID":63957,"ELEMENT_SET_NO":999,"REV_AT_EPOCH":3755,"BSTAR":0.0011825212,"MEAN_MOTION_DOT":0.00032413,"MEAN_MOTION_DDOT":0},{"OBJECT_NAME":"STARLINK-34144","OBJECT_ID":"2025-099G","EPOCH":"2026-01-04T11:23:02.928480","MEAN_MOTION":15.27598344,"ECCENTRICITY":0.00011155,"INCLINATION":42.9996,"RA_OF_ASC_NODE":179.0306,"ARG_OF_PERICENTER":280.5213,"MEAN_ANOMALY":79.5513,"EPHEMERIS_TYPE":0,"CLASSIFICATION_TYPE":"U","NORAD_CAT_ID":63958,"ELEMENT_SET_NO":999,"REV_AT_EPOCH":3751,"BSTAR":0.0015684255,"MEAN_MOTION_DOT":0.00043175,"MEAN_MOTION_DDOT":0},{"OBJECT_NAME":"STARLINK-34099","OBJECT_ID":"2025-099H","EPOCH":"2026-01-04T17:56:19.864896","MEAN_MOTION":15.27569763,"ECCENTRICITY":0.00030033,"INCLINATION":43.0029,"RA_OF_ASC_NODE":177.6387,"ARG_OF_PERICENTER":277.4673,"MEAN_ANOMALY":82.5838,"EPHEMERIS_TYPE":0,"CLASSIFICATION_TYPE":"U","NORAD_CAT_ID":63959,"ELEMENT_SET_NO":999,"REV_AT_EPOCH":3755,"BSTAR":0.00098501093,"MEAN_MOTION_DOT":0.00026936,"MEAN_MOTION_DDOT":0},{"OBJECT_NAME":"STARLINK-34107","OBJECT_ID":"2025-099J","EPOCH":"2026-01-05T04:33:13.985280","MEAN_MOTION":15.27586578,"ECCENTRICITY":2.504e-5,"INCLINATION":42.9996,"RA_OF_ASC_NODE":174.9386,"ARG_OF_PERICENTER":257.6747,"MEAN_ANOMALY":102.4077,"EPHEMERIS_TYPE":0,"CLASSIFICATION_TYPE":"U","NORAD_CAT_ID":63960,"ELEMENT_SET_NO":999,"REV_AT_EPOCH":3762,"BSTAR":0.0010214664,"MEAN_MOTION_DOT":0.00027959,"MEAN_MOTION_DDOT":0},{"OBJECT_NAME":"STARLINK-34121","OBJECT_ID":"2025-099K","EPOCH":"2026-01-05T04:23:58.123104","MEAN_MOTION":15.27594611,"ECCENTRICITY":0.00021727,"INCLINATION":43.004,"RA_OF_ASC_NODE":174.89,"ARG_OF_PERICENTER":264.8103,"MEAN_ANOMALY":95.2501,"EPHEMERIS_TYPE":0,"CLASSIFICATION_TYPE":"U","NORAD_CAT_ID":63961,"ELEMENT_SET_NO":999,"REV_AT_EPOCH":3762,"BSTAR":0.0014271133,"MEAN_MOTION_DOT":0.00039237,"MEAN_MOTION_DDOT":0},{"OBJECT_NAME":"STARLINK-34103","OBJECT_ID":"2025-099L","EPOCH":"2026-01-05T04:18:25.481376","MEAN_MOTION":15.2757892,"ECCENTRICITY":0.00015812,"INCLINATION":43.0041,"RA_OF_ASC_NODE":174.8589,"ARG_OF_PERICENTER":270.9657,"MEAN_ANOMALY":89.1013,"EPHEMERIS_TYPE":0,"CLASSIFICATION_TYPE":"U","NORAD_CAT_ID":63962,"ELEMENT_SET_NO":999,"REV_AT_EPOCH":3762,"BSTAR":0.00088495606,"MEAN_MOTION_DOT":0.00024169,"MEAN_MOTION_DDOT":0},{"OBJECT_NAME":"STARLINK-33801","OBJECT_ID":"2025-099M","EPOCH":"2026-01-05T04:07:18.850944","MEAN_MOTION":15.27575167,"ECCENTRICITY":0.00024306,"INCLINATION":43.0038,"RA_OF_ASC_NODE":174.7961,"ARG_OF_PERICENTER":270.4834,"MEAN_ANOMALY":89.574,"EPHEMERIS_TYPE":0,"CLASSIFICATION_TYPE":"U","NORAD_CAT_ID":63963,"ELEMENT_SET_NO":999,"REV_AT_EPOCH":3762,"BSTAR":0.0010054077,"MEAN_MOTION_DOT":0.00027505,"MEAN_MOTION_DDOT":0},{"OBJECT_NAME":"STARLINK-34135","OBJECT_ID":"2025-099N","EPOCH":"2026-01-05T04:12:51.950592","MEAN_MOTION":15.27594723,"ECCENTRICITY":0.00018923,"INCLINATION":43.004,"RA_OF_ASC_NODE":174.8281,"ARG_OF_PERICENTER":270.2218,"MEAN_ANOMALY":89.8417,"EPHEMERIS_TYPE":0,"CLASSIFICATION_TYPE":"U","NORAD_CAT_ID":63964,"ELEMENT_SET_NO":999,"REV_AT_EPOCH":3762,"BSTAR":0.0012624619,"MEAN_MOTION_DOT":0.00034658,"MEAN_MOTION_DDOT":0},{"OBJECT_NAME":"STARLINK-34147","OBJECT_ID":"2025-099P","EPOCH":"2026-01-04T10:46:03.682272","MEAN_MOTION":15.27602002,"ECCENTRICITY":9.645e-5,"INCLINATION":43,"RA_OF_ASC_NODE":178.8288,"ARG_OF_PERICENTER":271.4407,"MEAN_ANOMALY":88.6334,"EPHEMERIS_TYPE":0,"CLASSIFICATION_TYPE":"U","NORAD_CAT_ID":63965,"ELEMENT_SET_NO":999,"REV_AT_EPOCH":3751,"BSTAR":0.0010144549,"MEAN_MOTION_DOT":0.00027777,"MEAN_MOTION_DDOT":0},{"OBJECT_NAME":"STARLINK-33960","OBJECT_ID":"2025-099Q","EPOCH":"2026-01-05T03:56:13.243488","MEAN_MOTION":15.27610123,"ECCENTRICITY":4.126e-5,"INCLINATION":43.0004,"RA_OF_ASC_NODE":174.7347,"ARG_OF_PERICENTER":310.1006,"MEAN_ANOMALY":49.981,"EPHEMERIS_TYPE":0,"CLASSIFICATION_TYPE":"U","NORAD_CAT_ID":63966,"ELEMENT_SET_NO":999,"REV_AT_EPOCH":3762,"BSTAR":0.0011786401,"MEAN_MOTION_DOT":0.00032344,"MEAN_MOTION_DDOT":0},{"OBJECT_NAME":"STARLINK-34153","OBJECT_ID":"2025-099R","EPOCH":"2026-01-05T03:46:58.476864","MEAN_MOTION":15.27616875,"ECCENTRICITY":7.161e-5,"INCLINATION":42.9999,"RA_OF_ASC_NODE":174.6857,"ARG_OF_PERICENTER":318.2242,"MEAN_ANOMALY":41.8555,"EPHEMERIS_TYPE":0,"CLASSIFICATION_TYPE":"U","NORAD_CAT_ID":63967,"ELEMENT_SET_NO":999,"REV_AT_EPOCH":3762,"BSTAR":0.0016914499,"MEAN_MOTION_DOT":0.0004663,"MEAN_MOTION_DDOT":0},{"OBJECT_NAME":"STARLINK-33963","OBJECT_ID":"2025-099S","EPOCH":"2026-01-05T03:52:30.976032","MEAN_MOTION":15.27611892,"ECCENTRICITY":8.55e-5,"INCLINATION":43.0027,"RA_OF_ASC_NODE":174.7166,"ARG_OF_PERICENTER":269.1453,"MEAN_ANOMALY":90.93,"EPHEMERIS_TYPE":0,"CLASSIFICATION_TYPE":"U","NORAD_CAT_ID":63968,"ELEMENT_SET_NO":999,"REV_AT_EPOCH":3762,"BSTAR":0.0011570598,"MEAN_MOTION_DOT":0.00031746,"MEAN_MOTION_DDOT":0},{"OBJECT_NAME":"STARLINK-34112","OBJECT_ID":"2025-099T","EPOCH":"2026-01-05T03:41:24.701568","MEAN_MOTION":15.27639476,"ECCENTRICITY":0.00015191,"INCLINATION":42.9968,"RA_OF_ASC_NODE":174.6567,"ARG_OF_PERICENTER":284.7137,"MEAN_ANOMALY":75.3546,"EPHEMERIS_TYPE":0,"CLASSIFICATION_TYPE":"U","NORAD_CAT_ID":63969,"ELEMENT_SET_NO":999,"REV_AT_EPOCH":3762,"BSTAR":0.0014116437,"MEAN_MOTION_DOT":0.00038859,"MEAN_MOTION_DDOT":0}]
