STARLINK-33974          
1 63954U 25099C   26004.75387610  .00026539  00000+0  97071-3 0  9992
2 63954  42.9965 177.6850 0001558 264.0360  96.0314 15.27571648 37557
STARLINK-34170          
1 63955U 25099D   26004.88079551  .00028344  00000+0  10356-2 0  9995
2 63955  43.0008 176.9194 0001241 274.3946  85.6764 15.27579758 37568
STARLINK-34187          
1 63956U 25099E   26004.74360012  .00032256  00000+0  11765-2 0  9998
2 63956  43.0050 177.6130 0002986 281.1290  78.9226 15.27580331 37555
STARLINK-34142          
1 63957U 25099F   26004.73974319  .00032413  00000+0  11825-2 0  9991
2 63957  43.0072 177.5837 0003706 279.2243  80.8189 15.27567910 37558
STARLINK-34144          
1 63958U 25099G   26004.47433945  .00043175  00000+0  15684-2 0  9992
2 63958  42.9996 179.0306 0001115 280.5213  79.5513 15.27598344 37511
STARLINK-34099          
1 63959U 25099H   26004.74745214  .00026936  00000+0  98501-3 0  9994
2 63959  43.0029 177.6387 0003003 277.4673  82.5838 15.27569763 37558
STARLINK-34107          
1 63960U 25099J   26005.18974520  .00027959  00000+0  10215-2 0  9990
2 63960  42.9996 174.9386 0000250 257.6747 102.4077 15.27586578 37621
STARLINK-34121          
1 63961U 25099K   26005.18331161  .00039237  00000+0  14271-2 0  9997
2 63961  43.0040 174.8900 0002172 264.8103  95.2501 15.27594611 37624
STARLINK-34103          
1 63962U 25099L   26005.17946159  .00024169  00000+0  88496-3 0  9995
2 63962  43.0041 174.8589 0001581 270.9657  89.1013 15.27578920 37629
STARLINK-33801          
1 63963U 25099M   26005.17174596  .00027505  00000+0  10054-2 0  9995
2 63963  43.0038 174.7961 0002430 270.4834  89.5740 15.27575167 37626
STARLINK-34135          
1 63964U 25099N   26005.17560128  .00034658  00000+0  12625-2 0  9999
2 63964  43.0040 174.8281 0001892 270.2218  89.8417 15.27594723 37624
STARLINK-34147          
1 63965U 25099P   26004.44865373  .00027777  00000+0  10145-2 0  9998
2 63965  43.0000 178.8288 0000964 271.4407  88.6334 15.27602002 37517
STARLINK-33960          
1 63966U 25099Q   26005.16404217  .00032344  00000+0  11786-2 0  9993
2 63966  43.0004 174.7347 0000412 310.1006  49.9810 15.27610123 37621
STARLINK-34153          
1 63967U 25099R   26005.15762126  .00046630  00000+0  16914-2 0  9990
2 63967  42.9999 174.6857 0000716 318.2242  41.8555 15.27616875 37623
STARLINK-33963          
1 63968U 25099S   26005.16146963  .00031746  00000+0  11571-2 0  9993
2 63968  43.0027 174.7166 0000855 269.1453  90.9300 15.27611892 37621
STARLINK-34112          
1 63969U 25099T   26005.15375812  .00038859  00000+0  14116-2 0  9990
2 63969  42.9968 174.6567 0001519 284.7137  75.3546 15.27639476 37625
